[{"OBJECT_NAME":"LYNK TOWER 4","OBJECT_ID":"2023-001AB","EPOCH":"2026-03-09T16:15:30.644928","MEAN_MOTION":15.31819885,"ECCENTRICITY":0.00103213,"INCLINATION":97.3324,"RA_OF_ASC_NODE":128.594,"ARG_OF_PERICENTER":112.3386,"MEAN_ANOMALY":247.895,"EPHEMERIS_TYPE":0,"CLASSIFICATION_TYPE":"U","NORAD_CAT_ID":55034,"ELEMENT_SET_NO":999,"REV_AT_EPOCH":17658,"BSTAR":0.00030013829,"MEAN_MOTION_DOT":9.16e-5,"MEAN_MOTION_DDOT":0},{"OBJECT_NAME":"STARLINK-30292","OBJECT_ID":"2023-141E","EPOCH":"2026-03-09T21:16:57.992448","MEAN_MOTION":15.30188902,"ECCENTRICITY":0.00011205,"INCLINATION":53.1598,"RA_OF_ASC_NODE":282.8269,"ARG_OF_PERICENTER":87.113,"MEAN_ANOMALY":272.9999,"EPHEMERIS_TYPE":0,"CLASSIFICATION_TYPE":"U","NORAD_CAT_ID":57844,"ELEMENT_SET_NO":999,"REV_AT_EPOCH":14036,"BSTAR":1.9332501e-5,"MEAN_MOTION_DOT":2.13e-6,"MEAN_MOTION_DDOT":0}]
